[{"OBJECT_NAME":"ICEYE-X43","OBJECT_ID":"2024-149BZ","EPOCH":"2026-03-09T22:37:06.906720","MEAN_MOTION":14.99337202,"ECCENTRICITY":0.00024583,"INCLINATION":97.6823,"RA_OF_ASC_NODE":147.2527,"ARG_OF_PERICENTER":59.9226,"MEAN_ANOMALY":300.2241,"EPHEMERIS_TYPE":0,"CLASSIFICATION_TYPE":"U","NORAD_CAT_ID":60539,"ELEMENT_SET_NO":999,"REV_AT_EPOCH":8524,"BSTAR":0.00036668005,"MEAN_MOTION_DOT":4.424e-5,"MEAN_MOTION_DDOT":0},{"OBJECT_NAME":"STARLINK-32505","OBJECT_ID":"2025-037J","EPOCH":"2026-03-09T22:00:01.999584","MEAN_MOTION":14.98348642,"ECCENTRICITY":0.00031381,"INCLINATION":70.003,"RA_OF_ASC_NODE":354.0433,"ARG_OF_PERICENTER":266.347,"MEAN_ANOMALY":34.7136,"EPHEMERIS_TYPE":0,"CLASSIFICATION_TYPE":"U","NORAD_CAT_ID":63085,"ELEMENT_SET_NO":999,"REV_AT_EPOCH":576,"BSTAR":-0.0027350248,"MEAN_MOTION_DOT":-0.00032592,"MEAN_MOTION_DDOT":0}]
